     2.11           N: GPS NAV DATA                         RINEX VERSION / TYPE
teqc  2018Dec12     gpsops              20220119 01:04:07UTCPGM / RUN BY / DATE
Linux 2.6.32-573.12.1.x86_64|x86_64|gcc -static|Linux 64|=+ COMMENT
CHPI                                    MARKER NAME         COMMENT
41609M003                               MARKER NUMBER       COMMENT
4164613.9484 -4162456.9866 -2445028.7316                    COMMENT
                                                            COMMENT
This data is provided as a public service by NASA/JPL.      COMMENT
No warranty is expressed or implied regarding suitability   COMMENT
for use.  For further information, contact:                 COMMENT
Dave Stowers, NASA/JPL m/s 238-600                          COMMENT
4800 Oak Grove Drive, Pasadena CA 91109 USA                 COMMENT
                                                            END OF HEADER
16 22  1 18  1 59 44.0-4.571392200887D-04-5.343281372916D-12 0.000000000000D+00
    3.400000000000D+01 3.350000000000D+01 4.133743615585D-09-2.148942885903D+00
    1.380220055580D-06 1.265835564118D-02 1.028366386890D-05 5.153590509415D+03
    1.799840000000D+05 1.918524503708D-07 2.857148569101D+00-1.229345798492D-07
    9.709431501481D-01 1.837187500000D+02 6.983992195879D-01-7.510312834675D-09
   -3.146559638268D-10 1.000000000000D+00 2.193000000000D+03 0.000000000000D+00
    2.000000000000D+00 0.000000000000D+00-1.024454832077D-08 3.400000000000D+01
    1.789560000000D+05 4.000000000000D+00
28 22  1 18  2  0  0.0 4.198509268463D-04-7.958078640513D-12 0.000000000000D+00
    1.600000000000D+01 3.937500000000D+01 4.018738825174D-09-2.575426597724D+00
    2.082437276840D-06 1.695907849353D-02 1.093931496143D-05 5.153705598831D+03
    1.800000000000D+05 1.080334186554D-07 2.860615499158D+00 1.713633537292D-07
    9.700863687682D-01 1.673750000000D+02-1.292921805097D+00-7.295303878689D-09
   -4.521616914922D-10 1.000000000000D+00 2.193000000000D+03 0.000000000000D+00
    2.000000000000D+00 6.300000000000D+01-1.117587089539D-08 1.600000000000D+01
    1.790880000000D+05 4.000000000000D+00
 7 22  1 18  4  0  0.0 3.027771599591D-04 3.524291969370D-12 0.000000000000D+00
    8.100000000000D+01-1.750000000000D+00 5.198073663490D-09 1.423145432863D+00
   -9.872019290924D-08 1.544298278168D-02 5.245208740234D-06 5.153690576553D+03
    1.872000000000D+05-2.905726432800D-07 1.725976277840D+00 8.381903171539D-08
    9.504963610858D-01 2.773437500000D+02-2.295129836250D+00-8.391063807203D-09
   -1.232194182976D-10 1.000000000000D+00 2.193000000000D+03 0.000000000000D+00
    2.000000000000D+00 0.000000000000D+00-1.117587089539D-08 8.100000000000D+01
    1.800180000000D+05 4.000000000000D+00
 9 22  1 18  4  0  0.0-3.575626760721D-04 1.250555214938D-12 0.000000000000D+00
    1.100000000000D+01-1.153125000000D+01 4.545546483114D-09-1.566041768428D+00
   -6.128102540970D-07 2.332990523428D-03 1.022964715958D-05 5.153638475418D+03
    1.872000000000D+05-3.166496753693D-08 6.537653651630D-01 8.381903171539D-08
    9.541271628375D-01 1.786875000000D+02 1.858287217602D+00-7.864613306998D-09
    5.718095324479D-10 1.000000000000D+00 2.193000000000D+03 0.000000000000D+00
    2.000000000000D+00 0.000000000000D+00 1.396983861923D-09 1.100000000000D+01
    1.800180000000D+05 4.000000000000D+00
30 22  1 18  4  0  0.0-5.074786022305D-04-2.614797267597D-12 0.000000000000D+00
    3.800000000000D+01-2.125000000000D+00 5.478442484834D-09 1.438367911786D+00
   -2.793967723846D-08 5.426043062471D-03 4.783272743225D-06 5.153579923630D+03
    1.872000000000D+05-6.146728992462D-08 1.739557514821D+00 5.401670932770D-08
    9.356711273267D-01 2.749062500000D+02-2.750680456105D+00-8.426422422888D-09
   -9.571827276455D-11 1.000000000000D+00 2.193000000000D+03 0.000000000000D+00
    2.000000000000D+00 0.000000000000D+00 3.725290298462D-09 3.800000000000D+01
    1.800180000000D+05 4.000000000000D+00
14 22  1 18  4  0  0.0-7.216073572636D-05-5.229594535194D-12 0.000000000000D+00
    5.000000000000D+00 2.600000000000D+01 4.487686930174D-09 8.053859385057D-01
    1.318752765656D-06 1.336962799542D-03 1.040101051331D-05 5.153648912430D+03
    1.872000000000D+05 9.313225746155D-09 2.807642629859D+00-1.303851604462D-08
    9.543575212329D-01 1.759687500000D+02 3.035570528726D+00-7.820325747957D-09
   -5.207359764579D-10 1.000000000000D+00 2.193000000000D+03 0.000000000000D+00
    2.000000000000D+00 0.000000000000D+00-7.916241884232D-09 7.730000000000D+02
    1.800180000000D+05 4.000000000000D+00
 4 22  1 18  4  0  0.0-1.944247633219D-04 1.818989403546D-12 0.000000000000D+00
    2.050000000000D+02-2.906250000000D+00 4.359110145863D-09-2.375283928270D+00
   -2.142041921616D-07 1.650248770602D-03 9.931623935699D-06 5.153661052704D+03
    1.872000000000D+05-1.862645149231D-08 7.064874069163D-01 4.656612873077D-08
    9.611007382521D-01 1.892812500000D+02-3.104605507075D+00-7.742465361903D-09
    6.239545616406D-10 1.000000000000D+00 2.193000000000D+03 0.000000000000D+00
    2.800000000000D+00 0.000000000000D+00-4.190951585770D-09 2.050000000000D+02
    1.800180000000D+05 4.000000000000D+00
20 22  1 18  4  0  0.0 5.171252414584D-04-1.136868377216D-13 0.000000000000D+00
    2.500000000000D+01-1.515625000000D+02 4.697695677881D-09-3.141298320324D+00
   -7.916241884232D-06 5.279730539769D-03 5.882233381271D-06 5.153736680984D+03
    1.872000000000D+05-5.401670932770D-08-5.276975731335D-01 3.166496753693D-08
    9.416547431512D-01 2.564062500000D+02 3.105117377722D+00-8.173197589343D-09
   -3.253706958526D-10 1.000000000000D+00 2.193000000000D+03 0.000000000000D+00
    2.000000000000D+00 0.000000000000D+00-8.381903171539D-09 2.500000000000D+01
    1.800180000000D+05 4.000000000000D+00
 8 22  1 18  4  0  0.0-5.261134356260D-05-1.591615728103D-12 0.000000000000D+00
    3.000000000000D+00 1.293437500000D+02 4.329823211659D-09-1.901232877729D+00
    6.483867764473D-06 7.145622861572D-03 7.187947630882D-06 5.153708953857D+03
    1.872000000000D+05 0.000000000000D+00-2.489366986298D+00-1.154839992523D-07
    9.652573625007D-01 2.462500000000D+02 8.188666978848D-02-7.913543916583D-09
    2.767972440020D-10 1.000000000000D+00 2.193000000000D+03 0.000000000000D+00
    2.000000000000D+00 0.000000000000D+00 5.122274160385D-09 3.000000000000D+00
    1.800180000000D+05 4.000000000000D+00
 3 22  1 18  3 59 44.0-8.270097896457D-05-1.523403625470D-11 0.000000000000D+00
    3.500000000000D+01-1.376250000000D+02 4.021238929314D-09 9.178107057456D-01
   -7.171183824539D-06 3.867380437441D-03 8.068978786469D-06 5.153706024170D+03
    1.871840000000D+05-4.656612873077D-08-3.742207908152D-01 4.656612873077D-08
    9.725665883765D-01 2.290937500000D+02 9.737413964434D-01-7.872113619416D-09
   -2.471531520637D-10 1.000000000000D+00 2.193000000000D+03 0.000000000000D+00
    2.000000000000D+00 0.000000000000D+00 1.862645149231D-09 3.500000000000D+01
    1.800180000000D+05 4.000000000000D+00
28 22  1 18  4  0  0.0 4.197931848466D-04-7.958078640513D-12 0.000000000000D+00
    2.500000000000D+01 4.115625000000D+01 4.078384166785D-09-1.525203166765D+00
    2.354383468628D-06 1.695889909752D-02 1.100078225136D-05 5.153707586288D+03
    1.872000000000D+05-3.036111593246D-07 2.860562167016D+00 3.203749656677D-07
    9.700811300586D-01 1.768437500000D+02-1.292987661280D+00-7.698892118331D-09
   -4.910918845196D-10 1.000000000000D+00 2.193000000000D+03 0.000000000000D+00
    2.000000000000D+00 6.300000000000D+01-1.117587089539D-08 2.500000000000D+01
    1.800180000000D+05 4.000000000000D+00
 6 22  1 18  4  0  0.0 1.741196028888D-04 1.102762325900D-11 0.000000000000D+00
    7.400000000000D+01-8.343750000000D+00 4.329108896191D-09 2.451355346550D+00
   -2.179294824600D-07 2.641064114869D-03-3.315508365631D-07 5.153651744843D+03
    1.872000000000D+05 6.146728992462D-08-1.418042367911D+00-5.587935447693D-09
    9.857657301737D-01 3.975625000000D+02-9.968775073096D-01-8.271058808513D-09
   -8.750364487804D-11 1.000000000000D+00 2.193000000000D+03 0.000000000000D+00
    2.000000000000D+00 0.000000000000D+00 4.190951585770D-09 7.400000000000D+01
    1.800180000000D+05 4.000000000000D+00
11 22  1 18  4  0  0.0-5.421740934253D-05-3.728928277269D-11 0.000000000000D+00
    1.680000000000D+02-1.696875000000D+01 4.808414575482D-09-2.047824743320D+00
   -8.288770914078D-07 2.933072391897D-04-4.488974809647D-07 5.153760440826D+03
    1.872000000000D+05-4.842877388000D-08-1.365310998592D+00-2.980232238770D-08
    9.614980697283D-01 3.865937500000D+02 2.858736989459D+00-8.539284266894D-09
   -1.103617398666D-10 1.000000000000D+00 2.193000000000D+03 0.000000000000D+00
    2.800000000000D+00 6.300000000000D+01-8.847564458847D-09 6.800000000000D+02
    1.800180000000D+05 4.000000000000D+00
27 22  1 18  4  0  0.0 7.459800690413D-05 2.114575181622D-11 0.000000000000D+00
    9.000000000000D+01 1.317500000000D+02 4.120885937154D-09-1.971122478192D+00
    6.638467311859D-06 1.003597641829D-02 6.768852472305D-06 5.153650253296D+03
    1.872000000000D+05 9.126961231232D-08-2.470175996837D+00-1.229345798492D-07
    9.739318010831D-01 2.561562500000D+02 6.302684036088D-01-7.745679781510D-09
    3.010839699273D-10 1.000000000000D+00 2.193000000000D+03 0.000000000000D+00
    2.800000000000D+00 0.000000000000D+00 1.862645149231D-09 9.000000000000D+01
    1.800180000000D+05 4.000000000000D+00
 4 22  1 18  4 14 40.0-1.944238319993D-04 1.818989403546D-12 0.000000000000D+00
    2.060000000000D+02-2.218750000000D+00 4.348395413837D-09-2.246888418527D+00
   -2.030283212662D-07 1.650193356909D-03 9.937211871147D-06 5.153661209106D+03
    1.880800000000D+05-2.980232238770D-08 7.064806394572D-01 5.587935447693D-08
    9.611013000126D-01 1.891250000000D+02-3.104644815684D+00-7.736036522687D-09
    6.178828801592D-10 1.000000000000D+00 2.193000000000D+03 0.000000000000D+00
    2.000000000000D+00 0.000000000000D+00-4.190951585770D-09 2.060000000000D+02
    1.809180000000D+05 4.000000000000D+00
